CCSDS_OMM_VERS = 2.0
CREATION_DATE  = 
ORIGINATOR     = 

OBJECT_NAME    = UNKNOWN
OBJECT_ID      = 
CENTER_NAME    = EARTH
REF_FRAME      = TEME
TIME_SYSTEM    = UTC
MEAN_ELEMENT_THEORY = SGP/SGP4

EPOCH          = 2026-01-07T14:39:22.612896
MEAN_MOTION    = 12.95158380
ECCENTRICITY   = .01864577
INCLINATION    = 63.4605
RA_OF_ASC_NODE = 329.9072
ARG_OF_PERICENTER = 3.6864
MEAN_ANOMALY   = 356.5462

EPHEMERIS_TYPE = 0
CLASSIFICATION_TYPE = U
NORAD_CAT_ID   = 270328
ELEMENT_SET_NO = 999
REV_AT_EPOCH   = 26597
BSTAR          = .20073061E-2
MEAN_MOTION_DOT = .533E-5
MEAN_MOTION_DDOT = 0

CCSDS_OMM_VERS = 2.0
CREATION_DATE  = 
ORIGINATOR     = 

OBJECT_NAME    = UNKNOWN
OBJECT_ID      = 
CENTER_NAME    = EARTH
REF_FRAME      = TEME
TIME_SYSTEM    = UTC
MEAN_ELEMENT_THEORY = SGP/SGP4

EPOCH          = 2026-01-09T05:18:20.208672
MEAN_MOTION    = 14.37024552
ECCENTRICITY   = .00021147
INCLINATION    = 86.3964
RA_OF_ASC_NODE = 355.5469
ARG_OF_PERICENTER = 80.9322
MEAN_ANOMALY   = 279.2115

EPHEMERIS_TYPE = 0
CLASSIFICATION_TYPE = U
NORAD_CAT_ID   = 270329
ELEMENT_SET_NO = 999
REV_AT_EPOCH   = 25889
BSTAR          = .24418304E-3
MEAN_MOTION_DOT = .743E-5
MEAN_MOTION_DDOT = 0

CCSDS_OMM_VERS = 2.0
CREATION_DATE  = 
ORIGINATOR     = 

OBJECT_NAME    = UNKNOWN
OBJECT_ID      = 
CENTER_NAME    = EARTH
REF_FRAME      = TEME
TIME_SYSTEM    = UTC
MEAN_ELEMENT_THEORY = SGP/SGP4

EPOCH          = 2026-01-08T04:48:38.928384
MEAN_MOTION    = 13.42014881
ECCENTRICITY   = .00487742
INCLINATION    = 100.3034
RA_OF_ASC_NODE = 187.4054
ARG_OF_PERICENTER = 246.1039
MEAN_ANOMALY   = 113.4975

EPHEMERIS_TYPE = 0
CLASSIFICATION_TYPE = U
NORAD_CAT_ID   = 270330
ELEMENT_SET_NO = 999
REV_AT_EPOCH   = 25102
BSTAR          = .3750182E-2
MEAN_MOTION_DOT = .2074E-4
MEAN_MOTION_DDOT = 0

CCSDS_OMM_VERS = 2.0
CREATION_DATE  = 
ORIGINATOR     = 

OBJECT_NAME    = UNKNOWN
OBJECT_ID      = 
CENTER_NAME    = EARTH
REF_FRAME      = TEME
TIME_SYSTEM    = UTC
MEAN_ELEMENT_THEORY = SGP/SGP4

EPOCH          = 2026-01-02T08:16:18.053760
MEAN_MOTION    = 14.52617083
ECCENTRICITY   = .01002328
INCLINATION    = 86.4380
RA_OF_ASC_NODE = 214.6143
ARG_OF_PERICENTER = 9.3358
MEAN_ANOMALY   = 350.9679

EPHEMERIS_TYPE = 0
CLASSIFICATION_TYPE = U
NORAD_CAT_ID   = 270332
ELEMENT_SET_NO = 999
REV_AT_EPOCH   = 840
BSTAR          = .46035307E-2
MEAN_MOTION_DOT = .20181E-3
MEAN_MOTION_DDOT = 0

CCSDS_OMM_VERS = 2.0
CREATION_DATE  = 
ORIGINATOR     = 

OBJECT_NAME    = UNKNOWN
OBJECT_ID      = 
CENTER_NAME    = EARTH
REF_FRAME      = TEME
TIME_SYSTEM    = UTC
MEAN_ELEMENT_THEORY = SGP/SGP4

EPOCH          = 2026-01-07T15:39:10.590624
MEAN_MOTION    = 14.28872109
ECCENTRICITY   = .02111576
INCLINATION    = 97.7178
RA_OF_ASC_NODE = 142.7546
ARG_OF_PERICENTER = 198.8612
MEAN_ANOMALY   = 160.4666

EPHEMERIS_TYPE = 0
CLASSIFICATION_TYPE = U
NORAD_CAT_ID   = 270333
ELEMENT_SET_NO = 999
REV_AT_EPOCH   = 5131
BSTAR          = .27064489E-2
MEAN_MOTION_DOT = .8651E-4
MEAN_MOTION_DDOT = 0

CCSDS_OMM_VERS = 2.0
CREATION_DATE  = 
ORIGINATOR     = 

OBJECT_NAME    = UNKNOWN
OBJECT_ID      = 
CENTER_NAME    = EARTH
REF_FRAME      = TEME
TIME_SYSTEM    = UTC
MEAN_ELEMENT_THEORY = SGP/SGP4

EPOCH          = 2026-01-09T00:48:53.981568
MEAN_MOTION    = 14.15462153
ECCENTRICITY   = .01789139
INCLINATION    = 86.4505
RA_OF_ASC_NODE = 286.9670
ARG_OF_PERICENTER = 97.6790
MEAN_ANOMALY   = 264.4754

EPHEMERIS_TYPE = 0
CLASSIFICATION_TYPE = U
NORAD_CAT_ID   = 270334
ELEMENT_SET_NO = 999
REV_AT_EPOCH   = 28551
BSTAR          = .41112914E-2
MEAN_MOTION_DOT = .9396E-4
MEAN_MOTION_DDOT = 0

CCSDS_OMM_VERS = 2.0
CREATION_DATE  = 
ORIGINATOR     = 

OBJECT_NAME    = UNKNOWN
OBJECT_ID      = 
CENTER_NAME    = EARTH
REF_FRAME      = TEME
TIME_SYSTEM    = UTC
MEAN_ELEMENT_THEORY = SGP/SGP4

EPOCH          = 2026-01-07T15:30:37.284768
MEAN_MOTION    = 14.14615639
ECCENTRICITY   = .0073098
INCLINATION    = 66.6641
RA_OF_ASC_NODE = 136.8952
ARG_OF_PERICENTER = 47.0428
MEAN_ANOMALY   = 313.6761

EPHEMERIS_TYPE = 0
CLASSIFICATION_TYPE = U
NORAD_CAT_ID   = 270335
ELEMENT_SET_NO = 999
REV_AT_EPOCH   = 24083
BSTAR          = .29944E-3
MEAN_MOTION_DOT = .509E-5
MEAN_MOTION_DDOT = 0

CCSDS_OMM_VERS = 2.0
CREATION_DATE  = 
ORIGINATOR     = 

OBJECT_NAME    = UNKNOWN
OBJECT_ID      = 
CENTER_NAME    = EARTH
REF_FRAME      = TEME
TIME_SYSTEM    = UTC
MEAN_ELEMENT_THEORY = SGP/SGP4

EPOCH          = 2026-01-08T03:37:04.554624
MEAN_MOTION    = 14.25822573
ECCENTRICITY   = .00106068
INCLINATION    = 81.2881
RA_OF_ASC_NODE = 161.5035
ARG_OF_PERICENTER = 230.7884
MEAN_ANOMALY   = 129.2354

EPHEMERIS_TYPE = 0
CLASSIFICATION_TYPE = U
NORAD_CAT_ID   = 270336
ELEMENT_SET_NO = 999
REV_AT_EPOCH   = 23921
BSTAR          = .1193963E-2
MEAN_MOTION_DOT = .2852E-4
MEAN_MOTION_DDOT = 0

CCSDS_OMM_VERS = 2.0
CREATION_DATE  = 
ORIGINATOR     = 

OBJECT_NAME    = UNKNOWN
OBJECT_ID      = 
CENTER_NAME    = EARTH
REF_FRAME      = TEME
TIME_SYSTEM    = UTC
MEAN_ELEMENT_THEORY = SGP/SGP4

EPOCH          = 2026-01-06T17:43:19.883712
MEAN_MOTION    = 13.04708823
ECCENTRICITY   = .00309287
INCLINATION    = 90.1564
RA_OF_ASC_NODE = 5.3525
ARG_OF_PERICENTER = 178.2406
MEAN_ANOMALY   = 181.8834

EPHEMERIS_TYPE = 0
CLASSIFICATION_TYPE = U
NORAD_CAT_ID   = 270337
ELEMENT_SET_NO = 999
REV_AT_EPOCH   = 22128
BSTAR          = .3028643E-2
MEAN_MOTION_DOT = .985E-5
MEAN_MOTION_DDOT = 0

CCSDS_OMM_VERS = 2.0
CREATION_DATE  = 
ORIGINATOR     = 

OBJECT_NAME    = UNKNOWN
OBJECT_ID      = 
CENTER_NAME    = EARTH
REF_FRAME      = TEME
TIME_SYSTEM    = UTC
MEAN_ELEMENT_THEORY = SGP/SGP4

EPOCH          = 2026-01-06T15:32:14.653248
MEAN_MOTION    = 13.84118390
ECCENTRICITY   = .01470648
INCLINATION    = 99.0968
RA_OF_ASC_NODE = 328.3957
ARG_OF_PERICENTER = 106.1358
MEAN_ANOMALY   = 255.6042

EPHEMERIS_TYPE = 0
CLASSIFICATION_TYPE = U
NORAD_CAT_ID   = 270338
ELEMENT_SET_NO = 999
REV_AT_EPOCH   = 23054
BSTAR          = .67315127E-3
MEAN_MOTION_DOT = .774E-5
MEAN_MOTION_DDOT = 0

CCSDS_OMM_VERS = 2.0
CREATION_DATE  = 
ORIGINATOR     = 

OBJECT_NAME    = UNKNOWN
OBJECT_ID      = 
CENTER_NAME    = EARTH
REF_FRAME      = TEME
TIME_SYSTEM    = UTC
MEAN_ELEMENT_THEORY = SGP/SGP4

EPOCH          = 2025-12-30T11:38:52.846368
MEAN_MOTION    = 12.16118948
ECCENTRICITY   = .08448539
INCLINATION    = 83.2302
RA_OF_ASC_NODE = 270.4724
ARG_OF_PERICENTER = 229.3810
MEAN_ANOMALY   = 123.0774

EPHEMERIS_TYPE = 0
CLASSIFICATION_TYPE = U
NORAD_CAT_ID   = 270339
ELEMENT_SET_NO = 999
REV_AT_EPOCH   = 20440
BSTAR          = -.3127398E-2
MEAN_MOTION_DOT = -.941E-5
MEAN_MOTION_DDOT = 0

CCSDS_OMM_VERS = 2.0
CREATION_DATE  = 
ORIGINATOR     = 

OBJECT_NAME    = UNKNOWN
OBJECT_ID      = 
CENTER_NAME    = EARTH
REF_FRAME      = TEME
TIME_SYSTEM    = UTC
MEAN_ELEMENT_THEORY = SGP/SGP4

EPOCH          = 2026-01-08T09:54:13.677120
MEAN_MOTION    = 13.83817899
ECCENTRICITY   = .01463119
INCLINATION    = 98.8120
RA_OF_ASC_NODE = 249.2254
ARG_OF_PERICENTER = 53.1053
MEAN_ANOMALY   = 308.3409

EPHEMERIS_TYPE = 0
CLASSIFICATION_TYPE = U
NORAD_CAT_ID   = 270340
ELEMENT_SET_NO = 999
REV_AT_EPOCH   = 23143
BSTAR          = .51035247E-3
MEAN_MOTION_DOT = .575E-5
MEAN_MOTION_DDOT = 0

CCSDS_OMM_VERS = 2.0
CREATION_DATE  = 
ORIGINATOR     = 

OBJECT_NAME    = UNKNOWN
OBJECT_ID      = 
CENTER_NAME    = EARTH
REF_FRAME      = TEME
TIME_SYSTEM    = UTC
MEAN_ELEMENT_THEORY = SGP/SGP4

EPOCH          = 2026-01-07T00:24:57.964320
MEAN_MOTION    = 12.02158007
ECCENTRICITY   = .09247535
INCLINATION    = 83.2344
RA_OF_ASC_NODE = 279.0994
ARG_OF_PERICENTER = 10.0835
MEAN_ANOMALY   = 351.7442

EPHEMERIS_TYPE = 0
CLASSIFICATION_TYPE = U
NORAD_CAT_ID   = 270341
ELEMENT_SET_NO = 999
REV_AT_EPOCH   = 19275
BSTAR          = .92853513E-2
MEAN_MOTION_DOT = .2756E-4
MEAN_MOTION_DDOT = 0

CCSDS_OMM_VERS = 2.0
CREATION_DATE  = 
ORIGINATOR     = 

OBJECT_NAME    = UNKNOWN
OBJECT_ID      = 
CENTER_NAME    = EARTH
REF_FRAME      = TEME
TIME_SYSTEM    = UTC
MEAN_ELEMENT_THEORY = SGP/SGP4

EPOCH          = 2026-01-06T11:52:01.548768
MEAN_MOTION    = 14.21130121
ECCENTRICITY   = .00982101
INCLINATION    = 98.6827
RA_OF_ASC_NODE = 277.3808
ARG_OF_PERICENTER = 210.4041
MEAN_ANOMALY   = 149.1418

EPHEMERIS_TYPE = 0
CLASSIFICATION_TYPE = U
NORAD_CAT_ID   = 270342
ELEMENT_SET_NO = 999
REV_AT_EPOCH   = 22610
BSTAR          = .2210891E-2
MEAN_MOTION_DOT = .5004E-4
MEAN_MOTION_DDOT = 0

CCSDS_OMM_VERS = 2.0
CREATION_DATE  = 
ORIGINATOR     = 

OBJECT_NAME    = UNKNOWN
OBJECT_ID      = 
CENTER_NAME    = EARTH
REF_FRAME      = TEME
TIME_SYSTEM    = UTC
MEAN_ELEMENT_THEORY = SGP/SGP4

EPOCH          = 2026-01-08T09:51:38.406816
MEAN_MOTION    = 12.45492726
ECCENTRICITY   = .0713805
INCLINATION    = 83.4061
RA_OF_ASC_NODE = 70.4195
ARG_OF_PERICENTER = 282.8000
MEAN_ANOMALY   = 69.4296

EPHEMERIS_TYPE = 0
CLASSIFICATION_TYPE = U
NORAD_CAT_ID   = 270343
ELEMENT_SET_NO = 999
REV_AT_EPOCH   = 19736
BSTAR          = .81026815E-2
MEAN_MOTION_DOT = .2898E-4
MEAN_MOTION_DDOT = 0

CCSDS_OMM_VERS = 2.0
CREATION_DATE  = 
ORIGINATOR     = 

OBJECT_NAME    = UNKNOWN
OBJECT_ID      = 
CENTER_NAME    = EARTH
REF_FRAME      = TEME
TIME_SYSTEM    = UTC
MEAN_ELEMENT_THEORY = SGP/SGP4

EPOCH          = 2025-12-16T01:23:08.434464
MEAN_MOTION    = 13.06540304
ECCENTRICITY   = .02632382
INCLINATION    = 105.8394
RA_OF_ASC_NODE = 93.8750
ARG_OF_PERICENTER = 106.8770
MEAN_ANOMALY   = 256.1354

EPHEMERIS_TYPE = 0
CLASSIFICATION_TYPE = U
NORAD_CAT_ID   = 270344
ELEMENT_SET_NO = 999
REV_AT_EPOCH   = 20252
BSTAR          = .37801436E-3
MEAN_MOTION_DOT = .68E-6
MEAN_MOTION_DDOT = 0

